OBJECT_NAME,OBJECT_ID,NORAD_CAT_ID,EPOCH,MEAN_MOTION,ECCENTRICITY,INCLINATION,RA_OF_ASC_NODE,ARG_OF_PERICENTER,MEAN_ANOMALY,MEAN_MOTION_DOT,MEAN_MOTION_DDOT,REV_AT_EPOCH,BSTAR,orbital_period_min,altitude_estimated,drag_index,energy_index,orbit_type,orbit_family,anomaly_score,anomaly_flag
BEIDOU-3 M18,2018-093B,43707,2025-10-06 04:35:23.714016,1.86229821,0.0007139,54.1766,190.9068,332.6915,27.307,2.3e-07,0.0,4680,0.0,773.2381378383003,21535.30634438278,0.0,0.14416888932475944,MEO,MEO,0.0018591689219902285,-1
SHIYAN-6 01 (SY-6 01),2018-094B,43711,2025-10-13 23:14:19.224384,15.26464536,0.00121103,97.3744,298.8553,306.4811,53.5311,7.819e-05,0.0,38388,0.00030202579,94.335634142764,493.5282303587255,3.6576229246370005e-07,0.002145836195292588,LEO,LEO,-0.18191120793291626,1
TIANPING 1B,2018-094E,43714,2025-10-13 23:15:39.341376,16.20506859,0.00059544,97.2776,328.4533,230.7247,129.3514,0.02030874,2.370507e-06,38620,0.0010385293,88.86108639420452,225.31305888571842,6.18381886392e-07,0.0019040057569343846,LEO,LEO,-0.07278630839108302,1
MOHAMMED VI-B,2018-095A,43717,2025-10-13 22:25:57.506304,14.7713137,0.00011786,97.9421,357.7546,94.9544,265.1801,1.2e-05,0.0,37183,0.00017687128,97.48625134134143,645.5306564313269,2.0846049060799998e-08,0.0022915627894934394,LEO,LEO,-0.19615959470656064,1
HYSIS,2018-096A,43719,2025-10-13 22:59:13.765344,14.78588785,9.663e-05,98.0171,350.203,120.1286,240.0021,1.959e-05,0.0,37103,0.0002748867,97.39016111907003,640.9191972737362,2.6562301820999998e-08,0.002287047521893909,LEO,LEO,-0.19459400519743414,1
COSMOS 2530,2018-097A,43751,2025-10-13 23:21:13.540032,12.42871132,0.00194964,82.5206,15.1149,209.4251,150.5733,2.6e-07,0.0,31170,0.00011711502,115.86076487936322,1501.5925355971958,2.283321275928e-07,0.0032368144382791007,LEO,LEO,-0.11348863960244493,1
COSMOS 2531,2018-097B,43752,2025-10-13 22:04:39.645120,12.42865708,0.00160692,82.5237,16.1207,227.902,132.0694,1.2e-07,0.0,31171,1.5903143e-05,115.8612705082374,1501.6154401424883,2.555507854956e-08,0.003236842689955382,LEO,LEO,-0.11018731010271732,1
COSMOS 2532,2018-097C,43753,2025-10-13 22:43:29.460000,12.42863909,0.00175428,82.5196,15.0015,230.0883,129.8655,1.6e-07,0.0,31168,4.8140848e-05,115.86143821318412,1501.623037022382,8.445252682944e-08,0.0032368520603847134,LEO,LEO,-0.1102460572746492,1
MINXSS-2,2018-099A,43758,2025-10-13 21:05:50.609472,15.30575393,0.00114709,97.4877,353.5897,74.2399,286.0106,0.00028394,0.0,37625,0.00095878835,94.08226517855694,481.2314426793464,1.0998165284015e-06,0.002134324995449534,LEO,LEO,-0.1772897434017604,1
SIRION PATHFINDER-2,2018-099B,43759,2025-10-13 21:53:43.014624,15.11320102,0.00108913,97.4629,336.8143,74.8468,285.3966,7.166e-05,0.0,37538,0.00042834282,95.28094002682695,539.3100779082333,4.665210155466e-07,0.002189057082464264,LEO,LEO,-0.20116529546934836,1
STPSAT-5,2018-099E,43762,2025-10-13 21:42:58.392864,15.10792233,0.00049469,97.4471,338.337,103.6145,256.5636,7.142e-05,0.0,37564,0.00043362834,95.3142310733603,540.9196202417552,2.1451160351460002e-07,0.0021905870575583343,LEO,LEO,-0.21959711367836182,1
POLAR SCOUT KODIAK,2018-099G,43764,2025-10-13 22:46:41.367360,15.38612456,0.00090316,97.4532,356.32,49.5332,310.6699,0.00042406,0.0,37668,0.0011081302,93.59081907757543,457.34850730857033,1.000818871432e-06,0.0021120856036871763,LEO,LEO,-0.1608975741457288,1
HAWK-A,2018-099H,43765,2025-10-13 14:00:32.547456,15.20002488,0.00390406,97.4319,337.2083,71.6875,288.8601,0.00011362,0.0,37557,0.00051967051,94.7366870362649,512.9701017626458,2.0288248512706e-06,0.0021641203391703323,LEO,LEO,-0.15104032001781004,1
SPAWAR-CAL-O,2018-099J,43766,2025-10-13 22:07:54.909120,15.24698153,0.00114391,97.4719,345.1418,87.075,273.1797,0.00020768,0.0,37586,0.00083965978,94.44492322409208,498.8289717604457,9.604952189398e-07,0.0021508110346268924,LEO,LEO,-0.1917500281663173,1
CORVUS BC4,2018-099K,43767,2025-10-13 22:38:47.529888,15.09647715,0.00101402,97.4448,332.0604,125.1785,235.0396,7.653e-05,0.0,37521,0.00047870024,95.38649220556731,544.4126281795707,4.854116173648e-07,0.0021939098416480403,LEO,LEO,-0.2095300941593946,1
AISTECHSAT 2,2018-099L,43768,2025-10-13 21:04:05.763072,15.1193817,0.00066072,97.4682,335.3342,77.5607,282.6363,8.758e-05,0.0,37501,0.00051417061,95.24198995518448,537.4266972862133,3.397228054392e-07,0.0021872677108949316,LEO,LEO,-0.21123967918372427,1
FOX-1CLIFF (AO-95),2018-099N,43770,2025-10-13 03:08:20.177376,15.19873867,0.0011295,97.4769,342.924,131.0119,229.2095,0.00017326,0.0,37560,0.00080796793,94.74470423274934,513.3584719863584,9.125997769350001e-07,0.002164486636803422,LEO,LEO,-0.18976090295411252,1
RANGE-A,2018-099R,43773,2025-10-13 09:44:35.655936,15.10405792,0.00124772,97.4343,331.1612,116.6531,243.5978,9.169e-05,0.0,37520,0.00056058789,95.33861745148816,542.0985242855068,6.994567221107999e-07,0.002191708135021509,LEO,LEO,-0.20336200167035207,1
HIBER-2,2018-099S,43774,2025-10-13 10:49:32.457504,15.50867059,0.00033407,97.4734,358.9599,41.821,318.3296,0.00109242,0.0,37659,0.0018687476,92.85128545631196,421.3302510944877,6.24292510732e-07,0.0020788390265455074,LEO,LEO,-0.14306558737584446,1
SPAWAR-CAL-R,2018-099U,43776,2025-10-13 13:16:57.429408,15.04196765,0.00217372,97.4738,330.416,120.5709,239.7666,3.984e-05,0.0,37490,0.00028965017,95.73215642436247,561.109396799181,6.296183675324e-07,0.002209839355145304,LEO,LEO,-0.18952833674467306,1
SPAWAR-CAL-OR,2018-099W,43778,2025-10-13 13:45:00.097920,15.17669839,0.00146441,97.4194,334.302,99.835,260.4538,0.00013865,0.0,37517,0.00068910286,94.88229672857062,520.0220419104116,1.0091291192125998e-06,0.002170777930287549,LEO,LEO,-0.19146754860451365,1
SNUSAT-2,2018-099AA,43782,2025-10-13 22:00:22.948992,15.16733899,0.00129587,97.4449,339.3847,78.5905,281.6783,0.00011515,0.0,37563,0.00058888609,94.94084631123552,522.8566063835606,7.631198174483e-07,0.0021734578265561444,LEO,LEO,-0.19112979214820225,1
