BEIDOU-3 M18            
1 43707U 18093B   25279.19124669  .00000023  00000+0  00000+0 0  9998
2 43707  54.1766 190.9068 0007139 332.6915  27.3070  1.86229821 46800
SHIYAN-6 01 (SY-6 01)   
1 43711U 18094B   25286.96827806  .00007819  00000+0  30203-3 0  9992
2 43711  97.3744 298.8553 0012110 306.4811  53.5311 15.26464536383880
TIANPING 1B             
1 43714U 18094E   25286.96920534  .02030874  23705-5  10385-2 0  9997
2 43714  97.2776 328.4533 0005954 230.7247 129.3514 16.20506859386201
MOHAMMED VI-B           
1 43717U 18095A   25286.93469336  .00001200  00000+0  17687-3 0  9995
2 43717  97.9421 357.7546 0001178  94.9544 265.1801 14.77131370371834
HYSIS                   
1 43719U 18096A   25286.95779821  .00001959  00000+0  27489-3 0  9995
2 43719  98.0171 350.2030 0000966 120.1286 240.0021 14.78588785371030
COSMOS 2530             
1 43751U 18097A   25286.97307338  .00000026  00000+0  11712-3 0  9990
2 43751  82.5206  15.1149 0019496 209.4251 150.5733 12.42871132311705
COSMOS 2531             
1 43752U 18097B   25286.91990330  .00000012  00000+0  15903-4 0  9997
2 43752  82.5237  16.1207 0016069 227.9020 132.0694 12.42865708311712
COSMOS 2532             
1 43753U 18097C   25286.94686875  .00000016  00000+0  48141-4 0  9991
2 43753  82.5196  15.0015 0017542 230.0883 129.8655 12.42863909311689
MINXSS-2                
1 43758U 18099A   25286.87905798  .00028394  00000+0  95879-3 0  9996
2 43758  97.4877 353.5897 0011470  74.2399 286.0106 15.30575393376255
SIRION PATHFINDER-2     
1 43759U 18099B   25286.91230341  .00007166  00000+0  42834-3 0  9994
2 43759  97.4629 336.8143 0010891  74.8468 285.3966 15.11320102375382
STPSAT-5                
1 43762U 18099E   25286.90484251  .00007142  00000+0  43363-3 0  9990
2 43762  97.4471 338.3370 0004946 103.6145 256.5636 15.10792233375647
POLAR SCOUT KODIAK      
1 43764U 18099G   25286.94908990  .00042406  00000+0  11081-2 0  9990
2 43764  97.4532 356.3200 0009031  49.5332 310.6699 15.38612456376689
HAWK-A                  
1 43765U 18099H   25286.58371004  .00011362  00000+0  51967-3 0  9996
2 43765  97.4319 337.2083 0039040  71.6875 288.8601 15.20002488375576
SPAWAR-CAL-O            
1 43766U 18099J   25286.92216330  .00020768  00000+0  83966-3 0  9999
2 43766  97.4719 345.1418 0011439  87.0750 273.1797 15.24698153375865
CORVUS BC4              
1 43767U 18099K   25286.94360567  .00007653  00000+0  47870-3 0  9996
2 43767  97.4448 332.0604 0010140 125.1785 235.0396 15.09647715375219
AISTECHSAT 2            
1 43768U 18099L   25286.87784448  .00008758  00000+0  51417-3 0  9996
2 43768  97.4682 335.3342 0006607  77.5607 282.6363 15.11938170375012
FOX-1CLIFF (AO-95)      
1 43770U 18099N   25286.13078909  .00017326  00000+0  80797-3 0  9990
2 43770  97.4769 342.9240 0011295 131.0119 229.2095 15.19873867375608
RANGE-A                 
1 43773U 18099R   25286.40596824  .00009169  00000+0  56059-3 0  9994
2 43773  97.4343 331.1612 0012477 116.6531 243.5978 15.10405792375206
HIBER-2                 
1 43774U 18099S   25286.45107011  .00109242  00000+0  18687-2 0  9993
2 43774  97.4734 358.9599 0003340  41.8210 318.3296 15.50867059376593
SPAWAR-CAL-R            
1 43776U 18099U   25286.55344247  .00003984  00000+0  28965-3 0  9997
2 43776  97.4738 330.4160 0021737 120.5709 239.7666 15.04196765374904
SPAWAR-CAL-OR           
1 43778U 18099W   25286.57291780  .00013865  00000+0  68910-3 0  9997
2 43778  97.4194 334.3020 0014644  99.8350 260.4538 15.17669839375179
SNUSAT-2                
1 43782U 18099AA  25286.91693228  .00011515  00000+0  58889-3 0  9997
2 43782  97.4449 339.3847 0012958  78.5905 281.6783 15.16733899375630
